[Satellite]
VERSION=1.1
NAME=FLOCK 3P-38
NICKNAME=FLOCK 3P-38
TLE1=1 42037U 17008CT  18021.10456323  .00003508  00000-0  14853-3 0  9998
TLE2=2 42037  97.4692  86.8106 0008213 161.2799 198.8741 15.23817531 51654
